[{"OBJECT_NAME":"STARLINK-33768","OBJECT_ID":"2025-069X","EPOCH":"2026-03-09T11:33:06.376320","MEAN_MOTION":15.30194017,"ECCENTRICITY":0.00010893,"INCLINATION":53.158,"RA_OF_ASC_NODE":143.3729,"ARG_OF_PERICENTER":46.5569,"MEAN_ANOMALY":313.5523,"EPHEMERIS_TYPE":0,"CLASSIFICATION_TYPE":"U","NORAD_CAT_ID":63454,"ELEMENT_SET_NO":999,"REV_AT_EPOCH":5337,"BSTAR":0.0012609334,"MEAN_MOTION_DOT":0.00037166,"MEAN_MOTION_DDOT":0},{"OBJECT_NAME":"SCS-01 J","OBJECT_ID":"2025-100J","EPOCH":"2026-03-09T22:31:25.904064","MEAN_MOTION":15.31338011,"ECCENTRICITY":0.00063909,"INCLINATION":97.3693,"RA_OF_ASC_NODE":145.4824,"ARG_OF_PERICENTER":272.025,"MEAN_ANOMALY":88.026,"EPHEMERIS_TYPE":0,"CLASSIFICATION_TYPE":"U","NORAD_CAT_ID":63990,"ELEMENT_SET_NO":999,"REV_AT_EPOCH":4563,"BSTAR":0.0011832888,"MEAN_MOTION_DOT":0.00035886,"MEAN_MOTION_DDOT":0}]
